[{"OBJECT_NAME":"STARLINK-32419","OBJECT_ID":"2024-191S","EPOCH":"2026-03-09T22:41:36.160224","MEAN_MOTION":15.27559089,"ECCENTRICITY":3.759e-5,"INCLINATION":43.0018,"RA_OF_ASC_NODE":153.2252,"ARG_OF_PERICENTER":319.1931,"MEAN_ANOMALY":40.8892,"EPHEMERIS_TYPE":0,"CLASSIFICATION_TYPE":"U","NORAD_CAT_ID":61637,"ELEMENT_SET_NO":999,"REV_AT_EPOCH":7757,"BSTAR":-1.5465989e-5,"MEAN_MOTION_DOT":-6.87e-6,"MEAN_MOTION_DDOT":0},{"OBJECT_NAME":"ELEKTRON 1 DEB","OBJECT_ID":"1964-006C","EPOCH":"2026-03-09T22:10:00.918336","MEAN_MOTION":12.47513662,"ECCENTRICITY":0.13967706,"INCLINATION":60.7461,"RA_OF_ASC_NODE":226.3873,"ARG_OF_PERICENTER":16.6237,"MEAN_ANOMALY":347.6075,"EPHEMERIS_TYPE":0,"CLASSIFICATION_TYPE":"U","NORAD_CAT_ID":750,"ELEMENT_SET_NO":999,"REV_AT_EPOCH":83425,"BSTAR":0.0014750203,"MEAN_MOTION_DOT":0.00014937,"MEAN_MOTION_DDOT":0}]
